[
  {
    "icaoId": "LGAV",
    "raw": "LGAV 110650Z 02018KT 9999 FEW018 30/12 Q1015 NOSIG",
    "timestamp": 1723359000,
    "wind": {
      "direction": 20,
      "speed": 18,
      "variable": false
    },
    "temperature": 30,
    "dewPoint": 12,
    "qnh": 1015
  },
  {
    "icaoId": "LGAV",
    "raw": "LGAV 110620Z 03018KT 9999 FEW018 30/12 Q1016 NOSIG",
    "timestamp": 1723357200,
    "wind": {
      "direction": 30,
      "speed": 18,
      "variable": false
    },
    "temperature": 30,
    "dewPoint": 12,
    "qnh": 1016
  },
  {
    "icaoId": "LGAV",
    "raw": "LGAV 110550Z 04015KT CAVOK 30/14 Q1016 NOSIG",
    "timestamp": 1723355400,
    "wind": {
      "direction": 40,
      "speed": 15,
      "variable": false
    },
    "temperature": 30,
    "dewPoint": 14,
    "qnh": 1016
  },
  {
    "icaoId": "LGAV",
    "raw": "LGAV 110520Z 01012KT CAVOK 29/14 Q1015 NOSIG",
    "timestamp": 1723353600,
    "wind": {
      "direction": 10,
      "speed": 12,
      "variable": false
    },
    "temperature": 29,
    "dewPoint": 14,
    "qnh": 1015
  },
  {
    "icaoId": "LGAV",
    "raw": "LGAV 110450Z 01011KT CAVOK 28/14 Q1015 NOSIG",
    "timestamp": 1723351800,
    "wind": {
      "direction": 10,
      "speed": 11,
      "variable": false
    },
    "temperature": 28,
    "dewPoint": 14,
    "qnh": 1015
  },
  {
    "icaoId": "LGAV",
    "raw": "LGAV 110420Z 36006KT CAVOK 27/15 Q1015 NOSIG",
    "timestamp": 1723350000,
    "wind": {
      "direction": 360,
      "speed": 6,
      "variable": false
    },
    "temperature": 27,
    "dewPoint": 15,
    "qnh": 1015
  },
  {
    "icaoId": "LGAV",
    "raw": "LGAV 110350Z 35005KT CAVOK 27/15 Q1015 NOSIG",
    "timestamp": 1723348200,
    "wind": {
      "direction": 350,
      "speed": 5,
      "variable": false
    },
    "temperature": 27,
    "dewPoint": 15,
    "qnh": 1015
  },
  {
    "icaoId": "LGAV",
    "raw": "LGAV 110320Z 36009KT CAVOK 27/15 Q1015 NOSIG",
    "timestamp": 1723346400,
    "wind": {
      "direction": 360,
      "speed": 9,
      "variable": false
    },
    "temperature": 27,
    "dewPoint": 15,
    "qnh": 1015
  },
  {
    "icaoId": "LGAV",
    "raw": "LGAV 110250Z 01009KT CAVOK 27/15 Q1015 NOSIG",
    "timestamp": 1723344600,
    "wind": {
      "direction": 10,
      "speed": 9,
      "variable": false
    },
    "temperature": 27,
    "dewPoint": 15,
    "qnh": 1015
  },
  {
    "icaoId": "LGAV",
    "raw": "LGAV 110220Z 35005KT CAVOK 26/15 Q1015 NOSIG",
    "timestamp": 1723342800,
    "wind": {
      "direction": 350,
      "speed": 5,
      "variable": false
    },
    "temperature": 26,
    "dewPoint": 15,
    "qnh": 1015
  },
  {
    "icaoId": "LGAV",
    "raw": "LGAV 110150Z 00000KT CAVOK 25/12 Q1015 NOSIG",
    "timestamp": 1723341000,
    "wind": {
      "direction": 0,
      "speed": 0,
      "variable": false
    },
    "temperature": 25,
    "dewPoint": 12,
    "qnh": 1015
  },
  {
    "icaoId": "LGAV",
    "raw": "LGAV 110120Z 00000KT CAVOK 26/12 Q1015 NOSIG",
    "timestamp": 1723339200,
    "wind": {
      "direction": 0,
      "speed": 0,
      "variable": false
    },
    "temperature": 26,
    "dewPoint": 12,
    "qnh": 1015
  },
  {
    "icaoId": "LGAV",
    "raw": "LGAV 111220Z 03021G32KT 9999 FEW020 33/13 Q1014 NOSIG",
    "timestamp": 1723378800,
    "wind": {
      "direction": 30,
      "speed": 21,
      "variable": false,
      "gusting": 32
    },
    "temperature": 33,
    "dewPoint": 13,
    "qnh": 1014
  },
  {
    "icaoId": "LGAV",
    "raw": "LGAV 111150Z 03022G33KT 9999 FEW020 33/13 Q1014 NOSIG",
    "timestamp": 1723377000,
    "wind": {
      "direction": 30,
      "speed": 22,
      "variable": false,
      "gusting": 33
    },
    "temperature": 33,
    "dewPoint": 13,
    "qnh": 1014
  },
  {
    "icaoId": "LGAV",
    "raw": "LGAV 111120Z 04023G33KT 9999 FEW020 33/13 Q1014 NOSIG",
    "timestamp": 1723375200,
    "wind": {
      "direction": 40,
      "speed": 23,
      "variable": false,
      "gusting": 33
    },
    "temperature": 33,
    "dewPoint": 13,
    "qnh": 1014
  },
  {
    "icaoId": "LGAV",
    "raw": "LGAV 111050Z 03022G32KT 9999 FEW020 32/14 Q1015 NOSIG",
    "timestamp": 1723373400,
    "wind": {
      "direction": 30,
      "speed": 22,
      "variable": false,
      "gusting": 32
    },
    "temperature": 32,
    "dewPoint": 14,
    "qnh": 1015
  },
  {
    "icaoId": "LGAV",
    "raw": "LGAV 111020Z 04021KT 360V060 9999 FEW020 32/15 Q1015 NOSIG",
    "timestamp": 1723371600,
    "wind": {
      "direction": 40,
      "speed": 21,
      "variable": false
    },
    "temperature": 32,
    "dewPoint": 15,
    "qnh": 1015
  },
  {
    "icaoId": "LGAV",
    "raw": "LGAV 110950Z 03023KT 9999 FEW025 32/14 Q1015 NOSIG",
    "timestamp": 1723369800,
    "wind": {
      "direction": 30,
      "speed": 23,
      "variable": false
    },
    "temperature": 32,
    "dewPoint": 14,
    "qnh": 1015
  },
  {
    "icaoId": "LGAV",
    "raw": "LGAV 110920Z 03021G35KT 9999 FEW025 32/12 Q1015 NOSIG",
    "timestamp": 1723368000,
    "wind": {
      "direction": 30,
      "speed": 21,
      "variable": false,
      "gusting": 35
    },
    "temperature": 32,
    "dewPoint": 12,
    "qnh": 1015
  },
  {
    "icaoId": "LGAV",
    "raw": "LGAV 110850Z 03019KT CAVOK 32/11 Q1015 NOSIG",
    "timestamp": 1723366200,
    "wind": {
      "direction": 30,
      "speed": 19,
      "variable": false
    },
    "temperature": 32,
    "dewPoint": 11,
    "qnh": 1015
  },
  {
    "icaoId": "LGAV",
    "raw": "LGAV 110820Z 03022G32KT CAVOK 31/11 Q1015 NOSIG",
    "timestamp": 1723364400,
    "wind": {
      "direction": 30,
      "speed": 22,
      "variable": false,
      "gusting": 32
    },
    "temperature": 31,
    "dewPoint": 11,
    "qnh": 1015
  },
  {
    "icaoId": "LGAV",
    "raw": "LGAV 110750Z 03022G32KT CAVOK 31/11 Q1015 NOSIG",
    "timestamp": 1723362600,
    "wind": {
      "direction": 30,
      "speed": 22,
      "variable": false,
      "gusting": 32
    },
    "temperature": 31,
    "dewPoint": 11,
    "qnh": 1015
  },
  {
    "icaoId": "LGAV",
    "raw": "LGAV 110720Z 03019KT 9999 FEW018 31/12 Q1015 NOSIG",
    "timestamp": 1723360800,
    "wind": {
      "direction": 30,
      "speed": 19,
      "variable": false
    },
    "temperature": 31,
    "dewPoint": 12,
    "qnh": 1015
  },
  {
    "icaoId": "LGAV",
    "raw": "LGAV 111850Z 36017KT 9999 FEW030 30/12 Q1012 NOSIG",
    "timestamp": 1723402200,
    "wind": {
      "direction": 360,
      "speed": 17,
      "variable": false
    },
    "temperature": 30,
    "dewPoint": 12,
    "qnh": 1012
  },
  {
    "icaoId": "LGAV",
    "raw": "LGAV 111820Z 02009KT 9999 FEW030 30/12 Q1012 NOSIG",
    "timestamp": 1723400400,
    "wind": {
      "direction": 20,
      "speed": 9,
      "variable": false
    },
    "temperature": 30,
    "dewPoint": 12,
    "qnh": 1012
  },
  {
    "icaoId": "LGAV",
    "raw": "LGAV 111750Z 02012KT 9999 FEW030 30/12 Q1012 NOSIG",
    "timestamp": 1723398600,
    "wind": {
      "direction": 20,
      "speed": 12,
      "variable": false
    },
    "temperature": 30,
    "dewPoint": 12,
    "qnh": 1012
  },
  {
    "icaoId": "LGAV",
    "raw": "LGAV 111720Z 02013KT 9999 FEW030 30/12 Q1013 NOSIG",
    "timestamp": 1723396800,
    "wind": {
      "direction": 20,
      "speed": 13,
      "variable": false
    },
    "temperature": 30,
    "dewPoint": 12,
    "qnh": 1013
  },
  {
    "icaoId": "LGAV",
    "raw": "LGAV 111650Z 03016KT 9999 FEW030 31/12 Q1013 NOSIG",
    "timestamp": 1723395000,
    "wind": {
      "direction": 30,
      "speed": 16,
      "variable": false
    },
    "temperature": 31,
    "dewPoint": 12,
    "qnh": 1013
  },
  {
    "icaoId": "LGAV",
    "raw": "LGAV 111620Z 03016KT 9999 FEW030 31/12 Q1013 NOSIG",
    "timestamp": 1723393200,
    "wind": {
      "direction": 30,
      "speed": 16,
      "variable": false
    },
    "temperature": 31,
    "dewPoint": 12,
    "qnh": 1013
  },
  {
    "icaoId": "LGAV",
    "raw": "LGAV 111550Z 03018G29KT 350V060 9999 FEW030 32/12 Q1013 NOSIG",
    "timestamp": 1723391400,
    "wind": {
      "direction": 30,
      "speed": 18,
      "variable": false,
      "gusting": 29
    },
    "temperature": 32,
    "dewPoint": 12,
    "qnh": 1013
  },
  {
    "icaoId": "LGAV",
    "raw": "LGAV 111520Z 04020KT CAVOK 32/12 Q1013 NOSIG",
    "timestamp": 1723389600,
    "wind": {
      "direction": 40,
      "speed": 20,
      "variable": false
    },
    "temperature": 32,
    "dewPoint": 12,
    "qnh": 1013
  },
  {
    "icaoId": "LGAV",
    "raw": "LGAV 111450Z 03020KT 9999 FEW030 32/12 Q1013 NOSIG",
    "timestamp": 1723387800,
    "wind": {
      "direction": 30,
      "speed": 20,
      "variable": false
    },
    "temperature": 32,
    "dewPoint": 12,
    "qnh": 1013
  },
  {
    "icaoId": "LGAV",
    "raw": "LGAV 111420Z 03020G30KT 9999 FEW030 32/11 Q1013 NOSIG",
    "timestamp": 1723386000,
    "wind": {
      "direction": 30,
      "speed": 20,
      "variable": false,
      "gusting": 30
    },
    "temperature": 32,
    "dewPoint": 11,
    "qnh": 1013
  },
  {
    "icaoId": "LGAV",
    "raw": "LGAV 111350Z 03019G29KT 9999 FEW030 33/12 Q1013 NOSIG",
    "timestamp": 1723384200,
    "wind": {
      "direction": 30,
      "speed": 19,
      "variable": false,
      "gusting": 29
    },
    "temperature": 33,
    "dewPoint": 12,
    "qnh": 1013
  },
  {
    "icaoId": "LGAV",
    "raw": "LGAV 111320Z 02021G33KT 9999 FEW025 33/12 Q1013 NOSIG",
    "timestamp": 1723382400,
    "wind": {
      "direction": 20,
      "speed": 21,
      "variable": false,
      "gusting": 33
    },
    "temperature": 33,
    "dewPoint": 12,
    "qnh": 1013
  },
  {
    "icaoId": "LGAV",
    "raw": "LGAV 120050Z 01011KT 9999 FEW030 29/12 Q1011 NOSIG",
    "timestamp": 1723423800,
    "wind": {
      "direction": 10,
      "speed": 11,
      "variable": false
    },
    "temperature": 29,
    "dewPoint": 12,
    "qnh": 1011
  },
  {
    "icaoId": "LGAV",
    "raw": "LGAV 120020Z 35010KT 9999 FEW030 29/13 Q1011 NOSIG",
    "timestamp": 1723422000,
    "wind": {
      "direction": 350,
      "speed": 10,
      "variable": false
    },
    "temperature": 29,
    "dewPoint": 13,
    "qnh": 1011
  },
  {
    "icaoId": "LGAV",
    "raw": "LGAV 112350Z 35012KT 9999 FEW030 29/12 Q1012 NOSIG",
    "timestamp": 1723420200,
    "wind": {
      "direction": 350,
      "speed": 12,
      "variable": false
    },
    "temperature": 29,
    "dewPoint": 12,
    "qnh": 1012
  },
  {
    "icaoId": "LGAV",
    "raw": "LGAV 112320Z 36014KT 9999 FEW030 29/13 Q1012 NOSIG",
    "timestamp": 1723418400,
    "wind": {
      "direction": 360,
      "speed": 14,
      "variable": false
    },
    "temperature": 29,
    "dewPoint": 13,
    "qnh": 1012
  },
  {
    "icaoId": "LGAV",
    "raw": "LGAV 112250Z 36014KT 9999 FEW030 29/14 Q1012 NOSIG",
    "timestamp": 1723416600,
    "wind": {
      "direction": 360,
      "speed": 14,
      "variable": false
    },
    "temperature": 29,
    "dewPoint": 14,
    "qnh": 1012
  },
  {
    "icaoId": "LGAV",
    "raw": "LGAV 112220Z 01015KT 9999 FEW030 29/13 Q1012 NOSIG",
    "timestamp": 1723414800,
    "wind": {
      "direction": 10,
      "speed": 15,
      "variable": false
    },
    "temperature": 29,
    "dewPoint": 13,
    "qnh": 1012
  },
  {
    "icaoId": "LGAV",
    "raw": "LGAV 112150Z 01017KT 9999 FEW030 29/13 Q1012 NOSIG",
    "timestamp": 1723413000,
    "wind": {
      "direction": 10,
      "speed": 17,
      "variable": false
    },
    "temperature": 29,
    "dewPoint": 13,
    "qnh": 1012
  },
  {
    "icaoId": "LGAV",
    "raw": "LGAV 112120Z 01016KT 9999 FEW030 30/13 Q1012 NOSIG",
    "timestamp": 1723411200,
    "wind": {
      "direction": 10,
      "speed": 16,
      "variable": false
    },
    "temperature": 30,
    "dewPoint": 13,
    "qnh": 1012
  },
  {
    "icaoId": "LGAV",
    "raw": "LGAV 112050Z 01015KT 9999 FEW030 30/12 Q1012 NOSIG",
    "timestamp": 1723409400,
    "wind": {
      "direction": 10,
      "speed": 15,
      "variable": false
    },
    "temperature": 30,
    "dewPoint": 12,
    "qnh": 1012
  },
  {
    "icaoId": "LGAV",
    "raw": "LGAV 112020Z 01016KT 9999 FEW030 30/12 Q1013 NOSIG",
    "timestamp": 1723407600,
    "wind": {
      "direction": 10,
      "speed": 16,
      "variable": false
    },
    "temperature": 30,
    "dewPoint": 12,
    "qnh": 1013
  },
  {
    "icaoId": "LGAV",
    "raw": "LGAV 111950Z 36013KT 9999 FEW030 30/12 Q1013 NOSIG",
    "timestamp": 1723405800,
    "wind": {
      "direction": 360,
      "speed": 13,
      "variable": false
    },
    "temperature": 30,
    "dewPoint": 12,
    "qnh": 1013
  },
  {
    "icaoId": "LGAV",
    "raw": "LGAV 111920Z 02013KT 9999 FEW030 31/12 Q1013 NOSIG",
    "timestamp": 1723404000,
    "wind": {
      "direction": 20,
      "speed": 13,
      "variable": false
    },
    "temperature": 31,
    "dewPoint": 12,
    "qnh": 1013
  },
  {
    "icaoId": "LGAV",
    "raw": "LGAV 120650Z 03018G28KT 8000 FEW030 30/16 Q1012 RMK 1207/1211 5000 FU",
    "timestamp": 1723445400,
    "wind": {
      "direction": 30,
      "speed": 18,
      "variable": false,
      "gusting": 28
    },
    "temperature": 30,
    "dewPoint": 16,
    "qnh": 1012
  },
  {
    "icaoId": "LGAV",
    "raw": "LGAV 120620Z 03016KT 8000 FEW025 29/15 Q1012 NOSIG RMK 1206/1210 5000 FU",
    "timestamp": 1723443600,
    "wind": {
      "direction": 30,
      "speed": 16,
      "variable": false
    },
    "temperature": 29,
    "dewPoint": 15,
    "qnh": 1012
  },
  {
    "icaoId": "LGAV",
    "raw": "LGAV 120550Z 03016KT 7000 FEW025 29/15 Q1012 NOSIG",
    "timestamp": 1723441800,
    "wind": {
      "direction": 30,
      "speed": 16,
      "variable": false
    },
    "temperature": 29,
    "dewPoint": 15,
    "qnh": 1012
  },
  {
    "icaoId": "LGAV",
    "raw": "LGAV 120520Z 03015KT 7000 FEW025 29/15 Q1012 NOSIG RMK PROB30 1205/1209 5000 FU",
    "timestamp": 1723440000,
    "wind": {
      "direction": 30,
      "speed": 15,
      "variable": false
    },
    "temperature": 29,
    "dewPoint": 15,
    "qnh": 1012
  },
  {
    "icaoId": "LGAV",
    "raw": "LGAV 120450Z 03011KT 8000 FEW025 28/14 Q1012 RMK PROB30 1205/1209 5000 FU",
    "timestamp": 1723438200,
    "wind": {
      "direction": 30,
      "speed": 11,
      "variable": false
    },
    "temperature": 28,
    "dewPoint": 14,
    "qnh": 1012
  },
  {
    "icaoId": "LGAV",
    "raw": "LGAV 120420Z 03013KT 7000 FU FEW030 27/14 Q1012 NOSIG",
    "timestamp": 1723436400,
    "wind": {
      "direction": 30,
      "speed": 13,
      "variable": false
    },
    "temperature": 27,
    "dewPoint": 14,
    "qnh": 1012
  },
  {
    "icaoId": "LGAV",
    "raw": "LGAV 120350Z 03014KT 7000 FU FEW030 27/14 Q1011 NOSIG",
    "timestamp": 1723434600,
    "wind": {
      "direction": 30,
      "speed": 14,
      "variable": false
    },
    "temperature": 27,
    "dewPoint": 14,
    "qnh": 1011
  },
  {
    "icaoId": "LGAV",
    "raw": "LGAV 120320Z 01014KT 9999 FEW030 28/14 Q1011 NOSIG",
    "timestamp": 1723432800,
    "wind": {
      "direction": 10,
      "speed": 14,
      "variable": false
    },
    "temperature": 28,
    "dewPoint": 14,
    "qnh": 1011
  },
  {
    "icaoId": "LGAV",
    "raw": "LGAV 120250Z 01016KT 9999 FEW030 28/14 Q1011 NOSIG",
    "timestamp": 1723431000,
    "wind": {
      "direction": 10,
      "speed": 16,
      "variable": false
    },
    "temperature": 28,
    "dewPoint": 14,
    "qnh": 1011
  },
  {
    "icaoId": "LGAV",
    "raw": "LGAV 120220Z 01016KT 9999 FEW030 28/13 Q1011 NOSIG",
    "timestamp": 1723429200,
    "wind": {
      "direction": 10,
      "speed": 16,
      "variable": false
    },
    "temperature": 28,
    "dewPoint": 13,
    "qnh": 1011
  },
  {
    "icaoId": "LGAV",
    "raw": "LGAV 120150Z 01014KT 9999 FEW030 29/12 Q1011 NOSIG",
    "timestamp": 1723427400,
    "wind": {
      "direction": 10,
      "speed": 14,
      "variable": false
    },
    "temperature": 29,
    "dewPoint": 12,
    "qnh": 1011
  },
  {
    "icaoId": "LGAV",
    "raw": "LGAV 120120Z 01014KT 9999 FEW030 29/12 Q1011 NOSIG",
    "timestamp": 1723425600,
    "wind": {
      "direction": 10,
      "speed": 14,
      "variable": false
    },
    "temperature": 29,
    "dewPoint": 12,
    "qnh": 1011
  },
  {
    "icaoId": "LGAV",
    "raw": "LGAV 121250Z 04023KT 8000 FEW025 34/11 Q1011 NOSIG",
    "timestamp": 1723467000,
    "wind": {
      "direction": 40,
      "speed": 23,
      "variable": false
    },
    "temperature": 34,
    "dewPoint": 11,
    "qnh": 1011
  },
  {
    "icaoId": "LGAV",
    "raw": "LGAV 121220Z 04021KT 8000 FEW025 32/13 Q1011 NOSIG",
    "timestamp": 1723465200,
    "wind": {
      "direction": 40,
      "speed": 21,
      "variable": false
    },
    "temperature": 32,
    "dewPoint": 13,
    "qnh": 1011
  },
  {
    "icaoId": "LGAV",
    "raw": "LGAV 121150Z 03019G29KT 8000 FEW025 33/14 Q1011 NOSIG",
    "timestamp": 1723463400,
    "wind": {
      "direction": 30,
      "speed": 19,
      "variable": false,
      "gusting": 29
    },
    "temperature": 33,
    "dewPoint": 14,
    "qnh": 1011
  },
  {
    "icaoId": "LGAV",
    "raw": "LGAV 121120Z 04021KT 8000 FEW025 32/15 Q1011 NOSIG",
    "timestamp": 1723461600,
    "wind": {
      "direction": 40,
      "speed": 21,
      "variable": false
    },
    "temperature": 32,
    "dewPoint": 15,
    "qnh": 1011
  },
  {
    "icaoId": "LGAV",
    "raw": "LGAV 121050Z 04018G32KT 8000 FEW025 31/16 Q1012 NOSIG",
    "timestamp": 1723459800,
    "wind": {
      "direction": 40,
      "speed": 18,
      "variable": false,
      "gusting": 32
    },
    "temperature": 31,
    "dewPoint": 16,
    "qnh": 1012
  },
  {
    "icaoId": "LGAV",
    "raw": "LGAV 121020Z 04019G29KT 8000 FEW025 31/16 Q1012 NOSIG",
    "timestamp": 1723458000,
    "wind": {
      "direction": 40,
      "speed": 19,
      "variable": false,
      "gusting": 29
    },
    "temperature": 31,
    "dewPoint": 16,
    "qnh": 1012
  },
  {
    "icaoId": "LGAV",
    "raw": "LGAV 120950Z 04019G30KT 8000 FEW025 31/16 Q1012 RMK PROB30 1210/1214 5000 FU",
    "timestamp": 1723456200,
    "wind": {
      "direction": 40,
      "speed": 19,
      "variable": false,
      "gusting": 30
    },
    "temperature": 31,
    "dewPoint": 16,
    "qnh": 1012
  },
  {
    "icaoId": "LGAV",
    "raw": "LGAV 120920Z 03019G30KT 8000 FEW030 31/15 Q1012 RMK PROB30 1209/1213 5000 FU",
    "timestamp": 1723454400,
    "wind": {
      "direction": 30,
      "speed": 19,
      "variable": false,
      "gusting": 30
    },
    "temperature": 31,
    "dewPoint": 15,
    "qnh": 1012
  },
  {
    "icaoId": "LGAV",
    "raw": "LGAV 120850Z 04022G32KT 8000 FEW025 31/16 Q1012 RMK PROB30 1209/1213 5000 FU",
    "timestamp": 1723452600,
    "wind": {
      "direction": 40,
      "speed": 22,
      "variable": false,
      "gusting": 32
    },
    "temperature": 31,
    "dewPoint": 16,
    "qnh": 1012
  },
  {
    "icaoId": "LGAV",
    "raw": "LGAV 120820Z 03020KT 8000 FEW025 31/16 Q1012 NOSIG",
    "timestamp": 1723450800,
    "wind": {
      "direction": 30,
      "speed": 20,
      "variable": false
    },
    "temperature": 31,
    "dewPoint": 16,
    "qnh": 1012
  },
  {
    "icaoId": "LGAV",
    "raw": "LGAV 120750Z 03019KT 8000 FEW025 30/17 Q1012 NOSIG RMK TEMPO 1207/1211 5000 FU",
    "timestamp": 1723449000,
    "wind": {
      "direction": 30,
      "speed": 19,
      "variable": false
    },
    "temperature": 30,
    "dewPoint": 17,
    "qnh": 1012
  },
  {
    "icaoId": "LGAV",
    "raw": "LGAV 120720Z 04019KT 8000 FEW025 30/16 Q1012 RMK PROB 1207/1211 5000 FU",
    "timestamp": 1723447200,
    "wind": {
      "direction": 40,
      "speed": 19,
      "variable": false
    },
    "temperature": 30,
    "dewPoint": 16,
    "qnh": 1012
  },
  {
    "icaoId": "LGAV",
    "raw": "LGAV 121850Z 02003KT 9999 FEW025 29/12 Q1011 NOSIG",
    "timestamp": 1723488600,
    "wind": {
      "direction": 20,
      "speed": 3,
      "variable": false
    },
    "temperature": 29,
    "dewPoint": 12,
    "qnh": 1011
  },
  {
    "icaoId": "LGAV",
    "raw": "LGAV 121820Z 02006KT 340V050 9999 FEW025 29/13 Q1011 NOSIG",
    "timestamp": 1723486800,
    "wind": {
      "direction": 20,
      "speed": 6,
      "variable": false
    },
    "temperature": 29,
    "dewPoint": 13,
    "qnh": 1011
  },
  {
    "icaoId": "LGAV",
    "raw": "LGAV 121750Z 03007KT 9999 FEW025 30/14 Q1010 NOSIG",
    "timestamp": 1723485000,
    "wind": {
      "direction": 30,
      "speed": 7,
      "variable": false
    },
    "temperature": 30,
    "dewPoint": 14,
    "qnh": 1010
  },
  {
    "icaoId": "LGAV",
    "raw": "LGAV 121720Z 03011KT 9999 FEW025 30/14 Q1010 NOSIG",
    "timestamp": 1723483200,
    "wind": {
      "direction": 30,
      "speed": 11,
      "variable": false
    },
    "temperature": 30,
    "dewPoint": 14,
    "qnh": 1010
  },
  {
    "icaoId": "LGAV",
    "raw": "LGAV 121650Z 03013KT 9999 FEW025 30/14 Q1010 NOSIG",
    "timestamp": 1723481400,
    "wind": {
      "direction": 30,
      "speed": 13,
      "variable": false
    },
    "temperature": 30,
    "dewPoint": 14,
    "qnh": 1010
  },
  {
    "icaoId": "LGAV",
    "raw": "LGAV 121620Z 04016KT 9000 FEW025 31/14 Q1010 NOSIG",
    "timestamp": 1723479600,
    "wind": {
      "direction": 40,
      "speed": 16,
      "variable": false
    },
    "temperature": 31,
    "dewPoint": 14,
    "qnh": 1010
  },
  {
    "icaoId": "LGAV",
    "raw": "LGAV 121550Z 04016KT 9000 FEW025 31/13 Q1010 NOSIG",
    "timestamp": 1723477800,
    "wind": {
      "direction": 40,
      "speed": 16,
      "variable": false
    },
    "temperature": 31,
    "dewPoint": 13,
    "qnh": 1010
  },
  {
    "icaoId": "LGAV",
    "raw": "LGAV 121520Z 04015KT 8000 FEW025 31/13 Q1010 NOSIG",
    "timestamp": 1723476000,
    "wind": {
      "direction": 40,
      "speed": 15,
      "variable": false
    },
    "temperature": 31,
    "dewPoint": 13,
    "qnh": 1010
  },
  {
    "icaoId": "LGAV",
    "raw": "LGAV 121450Z 04017KT 8000 FEW025 32/13 Q1010 NOSIG",
    "timestamp": 1723474200,
    "wind": {
      "direction": 40,
      "speed": 17,
      "variable": false
    },
    "temperature": 32,
    "dewPoint": 13,
    "qnh": 1010
  },
  {
    "icaoId": "LGAV",
    "raw": "LGAV 121420Z 05019KT 8000 FEW025 32/10 Q1010 NOSIG",
    "timestamp": 1723472400,
    "wind": {
      "direction": 50,
      "speed": 19,
      "variable": false
    },
    "temperature": 32,
    "dewPoint": 10,
    "qnh": 1010
  },
  {
    "icaoId": "LGAV",
    "raw": "LGAV 121350Z 05023KT 8000 FEW025 32/13 Q1011 NOSIG",
    "timestamp": 1723470600,
    "wind": {
      "direction": 50,
      "speed": 23,
      "variable": false
    },
    "temperature": 32,
    "dewPoint": 13,
    "qnh": 1011
  },
  {
    "icaoId": "LGAV",
    "raw": "LGAV 121320Z 04023KT 8000 FEW025 33/11 Q1011 NOSIG",
    "timestamp": 1723468800,
    "wind": {
      "direction": 40,
      "speed": 23,
      "variable": false
    },
    "temperature": 33,
    "dewPoint": 11,
    "qnh": 1011
  },
  {
    "icaoId": "LGAV",
    "raw": "LGAV 130050Z 01011KT CAVOK 29/10 Q1010 NOSIG",
    "timestamp": 1723510200,
    "wind": {
      "direction": 10,
      "speed": 11,
      "variable": false
    },
    "temperature": 29,
    "dewPoint": 10,
    "qnh": 1010
  },
  {
    "icaoId": "LGAV",
    "raw": "LGAV 130020Z 01012KT CAVOK 28/10 Q1010 NOSIG",
    "timestamp": 1723508400,
    "wind": {
      "direction": 10,
      "speed": 12,
      "variable": false
    },
    "temperature": 28,
    "dewPoint": 10,
    "qnh": 1010
  },
  {
    "icaoId": "LGAV",
    "raw": "LGAV 122350Z 35003KT 9999 FEW025 27/10 Q1010 NOSIG",
    "timestamp": 1723506600,
    "wind": {
      "direction": 350,
      "speed": 3,
      "variable": false
    },
    "temperature": 27,
    "dewPoint": 10,
    "qnh": 1010
  },
  {
    "icaoId": "LGAV",
    "raw": "LGAV 122320Z 34004KT 300V010 9999 FEW025 27/11 Q1010 NOSIG",
    "timestamp": 1723504800,
    "wind": {
      "direction": 340,
      "speed": 4,
      "variable": false
    },
    "temperature": 27,
    "dewPoint": 11,
    "qnh": 1010
  },
  {
    "icaoId": "LGAV",
    "raw": "LGAV 122250Z 36007KT 9999 FEW025 27/12 Q1010 NOSIG",
    "timestamp": 1723503000,
    "wind": {
      "direction": 360,
      "speed": 7,
      "variable": false
    },
    "temperature": 27,
    "dewPoint": 12,
    "qnh": 1010
  },
  {
    "icaoId": "LGAV",
    "raw": "LGAV 122220Z 02008KT 9999 FEW025 28/12 Q1010 NOSIG",
    "timestamp": 1723501200,
    "wind": {
      "direction": 20,
      "speed": 8,
      "variable": false
    },
    "temperature": 28,
    "dewPoint": 12,
    "qnh": 1010
  },
  {
    "icaoId": "LGAV",
    "raw": "LGAV 122150Z 01010KT 9999 FEW025 28/11 Q1011 NOSIG",
    "timestamp": 1723499400,
    "wind": {
      "direction": 10,
      "speed": 10,
      "variable": false
    },
    "temperature": 28,
    "dewPoint": 11,
    "qnh": 1011
  },
  {
    "icaoId": "LGAV",
    "raw": "LGAV 122120Z 03007KT 010V070 9999 FEW025 28/11 Q1011 NOSIG",
    "timestamp": 1723497600,
    "wind": {
      "direction": 30,
      "speed": 7,
      "variable": false
    },
    "temperature": 28,
    "dewPoint": 11,
    "qnh": 1011
  },
  {
    "icaoId": "LGAV",
    "raw": "LGAV 122050Z 03008KT 9999 FEW025 28/10 Q1011 NOSIG",
    "timestamp": 1723495800,
    "wind": {
      "direction": 30,
      "speed": 8,
      "variable": false
    },
    "temperature": 28,
    "dewPoint": 10,
    "qnh": 1011
  },
  {
    "icaoId": "LGAV",
    "raw": "LGAV 122020Z 02009KT 9999 FEW025 28/11 Q1011 NOSIG",
    "timestamp": 1723494000,
    "wind": {
      "direction": 20,
      "speed": 9,
      "variable": false
    },
    "temperature": 28,
    "dewPoint": 11,
    "qnh": 1011
  },
  {
    "icaoId": "LGAV",
    "raw": "LGAV 121950Z 36006KT 9999 FEW025 28/10 Q1011 NOSIG",
    "timestamp": 1723492200,
    "wind": {
      "direction": 360,
      "speed": 6,
      "variable": false
    },
    "temperature": 28,
    "dewPoint": 10,
    "qnh": 1011
  },
  {
    "icaoId": "LGAV",
    "raw": "LGAV 121920Z 03004KT 9999 FEW025 29/11 Q1011 NOSIG",
    "timestamp": 1723490400,
    "wind": {
      "direction": 30,
      "speed": 4,
      "variable": false
    },
    "temperature": 29,
    "dewPoint": 11,
    "qnh": 1011
  },
  {
    "icaoId": "LGAV",
    "raw": "LGAV 130620Z 03016KT CAVOK 31/12 Q1010 NOSIG",
    "timestamp": 1723530000,
    "wind": {
      "direction": 30,
      "speed": 16,
      "variable": false
    },
    "temperature": 31,
    "dewPoint": 12,
    "qnh": 1010
  },
  {
    "icaoId": "LGAV",
    "raw": "LGAV 130550Z 03015KT CAVOK 30/12 Q1010 NOSIG",
    "timestamp": 1723528200,
    "wind": {
      "direction": 30,
      "speed": 15,
      "variable": false
    },
    "temperature": 30,
    "dewPoint": 12,
    "qnh": 1010
  },
  {
    "icaoId": "LGAV",
    "raw": "LGAV 130520Z 03013KT CAVOK 29/11 Q1010 NOSIG",
    "timestamp": 1723526400,
    "wind": {
      "direction": 30,
      "speed": 13,
      "variable": false
    },
    "temperature": 29,
    "dewPoint": 11,
    "qnh": 1010
  },
  {
    "icaoId": "LGAV",
    "raw": "LGAV 130450Z 04005KT CAVOK 29/12 Q1010 NOSIG",
    "timestamp": 1723524600,
    "wind": {
      "direction": 40,
      "speed": 5,
      "variable": false
    },
    "temperature": 29,
    "dewPoint": 12,
    "qnh": 1010
  },
  {
    "icaoId": "LGAV",
    "raw": "LGAV 130420Z 03006KT CAVOK 28/11 Q1010 NOSIG",
    "timestamp": 1723522800,
    "wind": {
      "direction": 30,
      "speed": 6,
      "variable": false
    },
    "temperature": 28,
    "dewPoint": 11,
    "qnh": 1010
  },
  {
    "icaoId": "LGAV",
    "raw": "LGAV 130350Z 03008KT CAVOK 28/11 Q1010 NOSIG",
    "timestamp": 1723521000,
    "wind": {
      "direction": 30,
      "speed": 8,
      "variable": false
    },
    "temperature": 28,
    "dewPoint": 11,
    "qnh": 1010
  },
  {
    "icaoId": "LGAV",
    "raw": "LGAV 130320Z 01010KT CAVOK 27/11 Q1010 NOSIG",
    "timestamp": 1723519200,
    "wind": {
      "direction": 10,
      "speed": 10,
      "variable": false
    },
    "temperature": 27,
    "dewPoint": 11,
    "qnh": 1010
  },
  {
    "icaoId": "LGAV",
    "raw": "LGAV 130250Z 02009KT CAVOK 27/10 Q1010 NOSIG",
    "timestamp": 1723517400,
    "wind": {
      "direction": 20,
      "speed": 9,
      "variable": false
    },
    "temperature": 27,
    "dewPoint": 10,
    "qnh": 1010
  },
  {
    "icaoId": "LGAV",
    "raw": "LGAV 130220Z 02009KT CAVOK 27/10 Q1010 NOSIG",
    "timestamp": 1723515600,
    "wind": {
      "direction": 20,
      "speed": 9,
      "variable": false
    },
    "temperature": 27,
    "dewPoint": 10,
    "qnh": 1010
  },
  {
    "icaoId": "LGAV",
    "raw": "LGAV 130150Z 02009KT CAVOK 27/11 Q1010 NOSIG",
    "timestamp": 1723513800,
    "wind": {
      "direction": 20,
      "speed": 9,
      "variable": false
    },
    "temperature": 27,
    "dewPoint": 11,
    "qnh": 1010
  },
  {
    "icaoId": "LGAV",
    "raw": "LGAV 130120Z 01009KT CAVOK 28/11 Q1009 NOSIG",
    "timestamp": 1723512000,
    "wind": {
      "direction": 10,
      "speed": 9,
      "variable": false
    },
    "temperature": 28,
    "dewPoint": 11,
    "qnh": 1009
  },
  {
    "icaoId": "LGAV",
    "raw": "LGAV 131250Z 06013G24KT CAVOK 33/15 Q1009 NOSIG",
    "timestamp": 1723553400,
    "wind": {
      "direction": 60,
      "speed": 13,
      "variable": false,
      "gusting": 24
    },
    "temperature": 33,
    "dewPoint": 15,
    "qnh": 1009
  },
  {
    "icaoId": "LGAV",
    "raw": "LGAV 131220Z 04014KT 360V070 CAVOK 34/13 Q1010 NOSIG",
    "timestamp": 1723551600,
    "wind": {
      "direction": 40,
      "speed": 14,
      "variable": false
    },
    "temperature": 34,
    "dewPoint": 13,
    "qnh": 1010
  },
  {
    "icaoId": "LGAV",
    "raw": "LGAV 131150Z 04016KT CAVOK 34/14 Q1010 NOSIG",
    "timestamp": 1723549800,
    "wind": {
      "direction": 40,
      "speed": 16,
      "variable": false
    },
    "temperature": 34,
    "dewPoint": 14,
    "qnh": 1010
  },
  {
    "icaoId": "LGAV",
    "raw": "LGAV 131120Z 05019KT CAVOK 33/14 Q1010 NOSIG",
    "timestamp": 1723548000,
    "wind": {
      "direction": 50,
      "speed": 19,
      "variable": false
    },
    "temperature": 33,
    "dewPoint": 14,
    "qnh": 1010
  },
  {
    "icaoId": "LGAV",
    "raw": "LGAV 131050Z 06019KT CAVOK 33/14 Q1010 NOSIG",
    "timestamp": 1723546200,
    "wind": {
      "direction": 60,
      "speed": 19,
      "variable": false
    },
    "temperature": 33,
    "dewPoint": 14,
    "qnh": 1010
  },
  {
    "icaoId": "LGAV",
    "raw": "LGAV 131020Z 05020KT CAVOK 32/16 Q1010 NOSIG",
    "timestamp": 1723544400,
    "wind": {
      "direction": 50,
      "speed": 20,
      "variable": false
    },
    "temperature": 32,
    "dewPoint": 16,
    "qnh": 1010
  },
  {
    "icaoId": "LGAV",
    "raw": "LGAV 130950Z 06016KT CAVOK 33/14 Q1010 NOSIG",
    "timestamp": 1723542600,
    "wind": {
      "direction": 60,
      "speed": 16,
      "variable": false
    },
    "temperature": 33,
    "dewPoint": 14,
    "qnh": 1010
  },
  {
    "icaoId": "LGAV",
    "raw": "LGAV 130920Z 06016KT CAVOK 32/14 Q1010 NOSIG",
    "timestamp": 1723540800,
    "wind": {
      "direction": 60,
      "speed": 16,
      "variable": false
    },
    "temperature": 32,
    "dewPoint": 14,
    "qnh": 1010
  },
  {
    "icaoId": "LGAV",
    "raw": "LGAV 130850Z 06017KT CAVOK 31/14 Q1011 NOSIG",
    "timestamp": 1723539000,
    "wind": {
      "direction": 60,
      "speed": 17,
      "variable": false
    },
    "temperature": 31,
    "dewPoint": 14,
    "qnh": 1011
  },
  {
    "icaoId": "LGAV",
    "raw": "LGAV 130820Z 05017KT CAVOK 31/14 Q1010 NOSIG",
    "timestamp": 1723537200,
    "wind": {
      "direction": 50,
      "speed": 17,
      "variable": false
    },
    "temperature": 31,
    "dewPoint": 14,
    "qnh": 1010
  },
  {
    "icaoId": "LGAV",
    "raw": "LGAV 130720Z 04017KT CAVOK 31/13 Q1011 NOSIG",
    "timestamp": 1723533600,
    "wind": {
      "direction": 40,
      "speed": 17,
      "variable": false
    },
    "temperature": 31,
    "dewPoint": 13,
    "qnh": 1011
  }
]